[ {"name": "STARLINK-37430", "line1": "1 68863U 26094AA  26187.02910304  .00028065  00000+0  86944-3 0  9999", "line2": "2 68863  97.2835 201.3238 0001779  62.8501 297.2923 15.33406363 10944"}, {"name": "STARLINK-37527", "line1": "1 68895U 26097A   26187.12873864 -.00000941  00000+0 -26835-4 0  9996", "line2": "2 68895  97.2858  22.2898 0001757  92.8489 267.2955 15.33421712 10385"}, {"name": "STARLINK-37432", "line1": "1 68896U 26097B   26187.09611705  .00066943  00000+0  20520-2 0  9992", "line2": "2 68896  97.2853  22.3345 0002131  75.6477 284.5002 15.33531398 10389"}, {"name": "STARLINK-37534", "line1": "1 68897U 26097C   26187.07979351 -.00007183  00000+0 -22055-3 0  9994", "line2": "2 68897  97.2860  22.3543 0001776  95.0317 265.1128 15.33419686 10380"}, {"name": "STARLINK-37386", "line1": "1 68898U 26097D   26187.04716247  .00005528  00000+0  17347-3 0  9992", "line2": "2 68898  97.2870  22.2460 0002146 132.2040 227.9385 15.33436286 10373"}, {"name": "STARLINK-37514", "line1": "1 68899U 26097E   26187.12057701 -.00007727  00000+0 -23750-3 0  9995", "line2": "2 68899  97.2867  22.3007 0001489 102.1106 258.0304 15.33414821 10384"}, {"name": "STARLINK-36961", "line1": "1 68900U 26097F   26187.10428504  .00020117  00000+0  62369-3 0  9994", "line2": "2 68900  97.2865  22.3205 0002071 102.0027 258.1448 15.33449722 10382"}, {"name": "STARLINK-37360", "line1": "1 68901U 26097G   26187.07163757 -.00004520  00000+0 -13786-3 0  9998", "line2": "2 68901  97.2859  22.3669 0001768  93.5710 266.5735 15.33419242 10381"}, {"name": "STARLINK-37564", "line1": "1 68902U 26097H   26187.08795552  .00007030  00000+0  21999-3 0  9996", "line2": "2 68902  97.2840  22.3432 0003088 101.8917 258.2672 15.33426460 10387"}, {"name": "STARLINK-37567", "line1": "1 68903U 26097J   26187.10969895  .00058451  00000+0  17956-2 0  9993", "line2": "2 68903  97.2859  22.3149 0001654  76.4598 283.6829 15.33502788 10386"}, {"name": "STARLINK-37528", "line1": "1 68904U 26097K   26187.08523329 -.00001086  00000+0 -31344-4 0  9992", "line2": "2 68904  97.2862  22.3480 0001703  86.6062 273.5375 15.33423739 10385"}, {"name": "STARLINK-37494", "line1": "1 68905U 26097L   26187.10154866  .00011712  00000+0  36471-3 0  9992", "line2": "2 68905  97.2857  22.3260 0001827  90.4515 269.6937 15.33428500 10380"}, {"name": "STARLINK-37541", "line1": "1 68906U 26097M   26187.12601873  .00012457  00000+0  38765-3 0  9995", "line2": "2 68906  97.2851  22.2924 0002678  89.9556 270.1993 15.33434215 10383"}, {"name": "STARLINK-37551", "line1": "1 68907U 26097N   26187.12330293  .00010023  00000+0  31256-3 0  9996", "line2": "2 68907  97.2833  22.2944 0002134  93.7401 266.4086 15.33425443 10389"}, {"name": "STARLINK-37566", "line1": "1 68908U 26097P   26187.11786491  .00000603  00000+0  21000-4 0  9991", "line2": "2 68908  97.2864  22.3042 0001420  88.8803 271.2602 15.33449548 10382"}, {"name": "STARLINK-37544", "line1": "1 68909U 26097Q   26187.11514385 -.00007572  00000+0 -23271-3 0  9998", "line2": "2 68909  97.2864  22.3072 0001486  93.6538 266.4875 15.33407318 10384"}, {"name": "STARLINK-37493", "line1": "1 68910U 26097R   26187.10699359 -.00005502  00000+0 -16841-3 0  9990", "line2": "2 68910  97.2862  22.3174 0002035  85.2103 274.9372 15.33404890 10381"}, {"name": "STARLINK-37543", "line1": "1 68911U 26097S   26187.09339296  .00007919  00000+0  24741-3 0  9990", "line2": "2 68911  97.2836  22.3364 0003003 108.5852 251.5718 15.33434076 10384"}, {"name": "STARLINK-37477", "line1": "1 68912U 26097T   26187.08251550 -.00001930  00000+0 -57513-4 0  9999", "line2": "2 68912  97.2867  22.3515 0001977  90.5568 269.5901 15.33421659 10385"}, {"name": "STARLINK-37504", "line1": "1 68913U 26097U   26187.09883083  .00012859  00000+0  40011-3 0  9997", "line2": "2 68913  97.2838  22.3285 0002224  96.8008 263.3488 15.33431577 10384"}, {"name": "STARLINK-37540", "line1": "1 68914U 26097V   26187.09067560  .00010041  00000+0  31306-3 0  9990", "line2": "2 68914  97.2845  22.3390 0003157 100.3400 259.8199 15.33427743 10382"}, {"name": "STARLINK-37516", "line1": "1 68915U 26097W   26187.13417300 -.00008975  00000+0 -27623-3 0  9999", "line2": "2 68915  97.2861  22.4357 0001674  87.2932 272.8503 15.33417019 10390"}, {"name": "STARLINK-37507", "line1": "1 68916U 26097X   26187.07708405  .00011049  00000+0  34415-3 0  9993", "line2": "2 68916  97.2856  22.3612 0001396  95.6465 264.4937 15.33439059 10388"}, {"name": "STARLINK-37542", "line1": "1 68917U 26097Y   26187.07438861  .00023523  00000+0  72848-3 0  9992", "line2": "2 68917  97.2860  22.3631 0001878  98.4691 261.6764 15.33452992 10380"}, {"name": "STARLINK-37529", "line1": "1 68918U 26097Z   26187.13145787 -.00002341  00000+0 -70256-4 0  9991", "line2": "2 68918  97.2858  22.4384 0001883  97.7768 262.3688 15.33420497 10396"}, {"name": "STARLINK-37258", "line1": "1 68951U 26099A   26187.11481370  .00033989  00000+0  10136-2 0  9998", "line2": "2 68951  53.1572  73.1413 0001197 106.8151 253.2983 15.34368137 10175"}, {"name": "STARLINK-37308", "line1": "1 68952U 26099B   26186.98245320  .00071507  00000+0  21069-2 0  9991", "line2": "2 68952  53.1569  73.7551 0001488 100.9984 259.1186 15.34408072 10154"}, {"name": "STARLINK-37337", "line1": "1 68953U 26099C   26186.98035321  .00056565  00000+0  16728-2 0  9993", "line2": "2 68953  53.1571  73.7441 0001243  87.7616 272.3528 15.34397493 10150"}, {"name": "STARLINK-37301", "line1": "1 68954U 26099D   26187.10641529  .00071050  00000+0  20933-2 0  9991", "line2": "2 68954  53.1582  73.1048 0001313  95.7127 264.4025 15.34413383 10177"}, {"name": "STARLINK-36794", "line1": "1 68955U 26099E   26186.97824721  .00072255  00000+0  21300-2 0  9990", "line2": "2 68955  53.1576  73.7137 0001681  84.6941 275.4254 15.34386660 10156"}]