OBJECT_NAME,OBJECT_ID,EPOCH,MEAN_MOTION,ECCENTRICITY,INCLINATION,RA_OF_ASC_NODE,ARG_OF_PERICENTER,MEAN_ANOMALY,EPHEMERIS_TYPE,CLASSIFICATION_TYPE,NORAD_CAT_ID,ELEMENT_SET_NO,REV_AT_EPOCH,BSTAR,MEAN_MOTION_DOT,MEAN_MOTION_DDOT
STARLINK-37430,2026-094AA,2026-07-06T00:41:54.502656,15.33406363,.00017793,97.2835,201.3238,62.8501,297.2923,0,U,68863,999,1094,.86943745E-3,.28065E-3,0
STARLINK-37527,2026-097A,2026-07-06T03:05:23.018496,15.33421712,.00017575,97.2858,22.2898,92.8489,267.2955,0,U,68895,999,1038,-.26835048E-4,-.941E-5,0
STARLINK-37432,2026-097B,2026-07-06T02:18:24.513120,15.33531398,.00021317,97.2853,22.3345,75.6477,284.5002,0,U,68896,999,1038,.20519585E-2,.66943E-3,0
STARLINK-37534,2026-097C,2026-07-06T01:54:54.159264,15.33419686,.00017767,97.2860,22.3543,95.0317,265.1128,0,U,68897,999,1038,-.22055265E-3,-.7183E-4,0
STARLINK-37386,2026-097D,2026-07-06T01:07:54.837408,15.33436286,.00021465,97.2870,22.2460,132.2040,227.9385,0,U,68898,999,1037,.17346692E-3,.5528E-4,0
STARLINK-37514,2026-097E,2026-07-06T02:53:37.853664,15.33414821,.00014898,97.2867,22.3007,102.1106,258.0304,0,U,68899,999,1038,-.23749562E-3,-.7727E-4,0
STARLINK-36961,2026-097F,2026-07-06T02:30:10.227456,15.33449722,.00020713,97.2865,22.3205,102.0027,258.1448,0,U,68900,999,1038,.62369113E-3,.20117E-3,0
STARLINK-37360,2026-097G,2026-07-06T01:43:09.486048,15.33419242,.00017684,97.2859,22.3669,93.5710,266.5735,0,U,68901,999,1038,-.13785973E-3,-.452E-4,0
STARLINK-37564,2026-097H,2026-07-06T02:06:39.356928,15.33426460,.00030881,97.2840,22.3432,101.8917,258.2672,0,U,68902,999,1038,.21999324E-3,.703E-4,0
STARLINK-37567,2026-097J,2026-07-06T02:37:57.989280,15.33502788,.00016548,97.2859,22.3149,76.4598,283.6829,0,U,68903,999,1038,.1795609E-2,.58451E-3,0
STARLINK-37528,2026-097K,2026-07-06T02:02:44.156256,15.33423739,.00017031,97.2862,22.3480,86.6062,273.5375,0,U,68904,999,1038,-.31344116E-4,-.1086E-4,0
STARLINK-37494,2026-097L,2026-07-06T02:26:13.804224,15.33428500,.00018275,97.2857,22.3260,90.4515,269.6937,0,U,68905,999,1038,.36471295E-3,.11712E-3,0
STARLINK-37541,2026-097M,2026-07-06T03:01:28.018272,15.33434215,.00026783,97.2851,22.2924,89.9556,270.1993,0,U,68906,999,1038,.38764772E-3,.12457E-3,0
STARLINK-37551,2026-097N,2026-07-06T02:57:33.373152,15.33425443,.00021348,97.2833,22.2944,93.7401,266.4086,0,U,68907,999,1038,.31256312E-3,.10023E-3,0
STARLINK-37566,2026-097P,2026-07-06T02:49:43.528224,15.33449548,.00014209,97.2864,22.3042,88.8803,271.2602,0,U,68908,999,1038,.20999514E-4,.603E-5,0
STARLINK-37544,2026-097Q,2026-07-06T02:45:48.428640,15.33407318,.00014869,97.2864,22.3072,93.6538,266.4875,0,U,68909,999,1038,-.23270835E-3,-.7572E-4,0
STARLINK-37493,2026-097R,2026-07-06T02:34:04.246176,15.33404890,.00020353,97.2862,22.3174,85.2103,274.9372,0,U,68910,999,1038,-.16841027E-3,-.5502E-4,0
STARLINK-37543,2026-097S,2026-07-06T02:14:29.151744,15.33434076,.00030034,97.2836,22.3364,108.5852,251.5718,0,U,68911,999,1038,.24740848E-3,.7919E-4,0
STARLINK-37477,2026-097T,2026-07-06T01:58:49.339200,15.33421659,.0001977,97.2867,22.3515,90.5568,269.5901,0,U,68912,999,1038,-.57512725E-4,-.193E-4,0
STARLINK-37504,2026-097U,2026-07-06T02:22:18.983712,15.33431577,.00022246,97.2838,22.3285,96.8008,263.3488,0,U,68913,999,1038,.40010661E-3,.12859E-3,0
STARLINK-37540,2026-097V,2026-07-06T02:10:34.371840,15.33427743,.00031571,97.2845,22.3390,100.3400,259.8199,0,U,68914,999,1038,.31305764E-3,.10041E-3,0
STARLINK-37516,2026-097W,2026-07-06T03:13:12.547200,15.33417019,.00016741,97.2861,22.4357,87.2932,272.8503,0,U,68915,999,1039,-.27622866E-3,-.8975E-4,0
STARLINK-37507,2026-097X,2026-07-06T01:51:00.061920,15.33439059,.00013964,97.2856,22.3612,95.6465,264.4937,0,U,68916,999,1038,.34414546E-3,.11049E-3,0
STARLINK-37542,2026-097Y,2026-07-06T01:47:07.175904,15.33452992,.00018784,97.2860,22.3631,98.4691,261.6764,0,U,68917,999,1038,.72847875E-3,.23523E-3,0
STARLINK-37529,2026-097Z,2026-07-06T03:09:17.959968,15.33420497,.00018837,97.2858,22.4384,97.7768,262.3688,0,U,68918,999,1039,-.70256299E-4,-.2341E-4,0
STARLINK-37258,2026-099A,2026-07-06T02:45:19.903680,15.34368137,.00011976,53.1572,73.1413,106.8151,253.2983,0,U,68951,999,1017,.10135696E-2,.33989E-3,0
STARLINK-37308,2026-099B,2026-07-05T23:34:43.956480,15.34408072,.00014883,53.1569,73.7551,100.9984,259.1186,0,U,68952,999,1015,.21068576E-2,.71507E-3,0
STARLINK-37337,2026-099C,2026-07-05T23:31:42.517344,15.34397493,.0001243,53.1571,73.7441,87.7616,272.3528,0,U,68953,999,1015,.16728026E-2,.56565E-3,0
STARLINK-37301,2026-099D,2026-07-06T02:33:14.281056,15.34413383,.00013136,53.1582,73.1048,95.7127,264.4025,0,U,68954,999,1017,.20932633E-2,.7105E-3,0
STARLINK-36794,2026-099E,2026-07-05T23:28:40.558944,15.34386660,.00016815,53.1576,73.7137,84.6941,275.4254,0,U,68955,999,1015,.2130002E-2,.72255E-3,0
